NORAD_CAT_ID,OBJECT_NAME,OBJECT_TYPE,EPOCH,MEAN_MOTION,ECCENTRICITY,INCLINATION,RA_OF_ASC_NODE,ARG_OF_PERICENTER,MEAN_ANOMALY,BSTAR,MEAN_MOTION_DOT,MEAN_MOTION_DDOT,TLE_LINE0,TLE_LINE1,TLE_LINE2,SEMIMAJOR_AXIS,PERIOD,APOGEE,PERIGEE,DECAYED
49163.0,STARLINK-3088,PAYLOAD,2021-11-07 20:00:01,15.69788837,0.0004263,69.9987,333.0461,288.9056,309.0501,0.00035161,0.00042048,0.0,0 STARLINK-3088,1 49163U 21082AK  21311.83334491  .00042048  00000-0  35161-3 0  9996,2 49163  69.9987 333.0461 0004263 288.9056 309.0501 15.69788837  9858,6737.638000000001,91.732,362.375,356.631,0.0
49163.0,STARLINK-3088,PAYLOAD,2021-11-07 22:00:01,15.69776572,0.0004233,69.9986,332.8118,287.34,61.4835,0.00066466,0.00079996,0.0,0 STARLINK-3088,1 49163U 21082AK  21311.91668981  .00079996  00000-0  66466-3 0  9993,2 49163  69.9986 332.8118 0004233 287.3400  61.4835 15.69776572  3661,6737.6730000000025,91.733,362.39,356.686,0.0
49163.0,STARLINK-3088,PAYLOAD,2021-11-08 14:00:01,15.69789557,0.0003988,69.9986,330.9374,294.8343,220.2941,-0.00069604,-0.0008263999999999,0.0,0 STARLINK-3088,1 49163U 21082AK  21312.58334491 -.00082640  00000-0 -69604-3 0  9992,2 49163  69.9986 330.9374 0003988 294.8343 220.2941 15.69789557  9979,6737.636,91.732,362.18800000000016,356.814,0.0
49163.0,STARLINK-3088,PAYLOAD,2021-11-08 22:00:00,15.69693659,0.0003778,69.9991,330.0004,289.7153,308.5622,0.00081555,0.00098072,0.0,0 STARLINK-3088,1 49163U 21082AK  21312.91667824  .00098072  00000-0  81555-3 0  9991,2 49163  69.9991 330.0004 0003778 289.7153 308.5622 15.69693659  3668,6737.911,91.738,362.321,357.23,0.0
49163.0,STARLINK-3088,PAYLOAD,2021-11-09 04:00:00,15.69768334,0.0003827,69.9995,329.2977,290.0645,280.5231,-0.00015202,-0.00018336,0.0,0 STARLINK-3088,1 49163U 21082AK  21313.16667824 -.00018336  00000-0 -15202-3 0  9992,2 49163  69.9995 329.2977 0003827 290.0645 280.5231 15.69768334 10067,6737.696999999999,91.733,362.14,356.983,0.0
49163.0,STARLINK-3088,PAYLOAD,2021-11-09 14:00:01,15.69773395,0.0003998,69.999,328.1263,294.3471,110.2267,8.2193e-06,7.699999999999999e-06,0.0,0 STARLINK-3088,1 49163U 21082AK  21313.58335648  .00000770  00000-0  82193-5 0  9990,2 49163  69.9990 328.1263 0003998 294.3471 110.2267 15.69773395  3682,6737.682,91.733,362.241,356.85400000000016,0.0
49163.0,STARLINK-3088,PAYLOAD,2021-11-09 18:00:00,15.69776746,0.0003842,69.9991,327.6578,291.6039,334.4818,-0.00012088,-0.00014635,0.0,0 STARLINK-3088,1 49163U 21082AK  21313.75001157 -.00014635  00000-0 -12088-3 0  9995,2 49163  69.9991 327.6578 0003842 291.6039 334.4818 15.69776746  3678,6737.6730000000025,91.733,362.126,356.949,0.0
49163.0,STARLINK-3088,PAYLOAD,2021-11-10 02:00:01,15.69814187,0.0003743,69.9993,326.7208,288.7655,60.5306,-0.00084464,-0.00100127,0.0,0 STARLINK-3088,1 49163U 21082AK  21314.08335648 -.00100127  00000-0 -84464-3 0  9996,2 49163  69.9993 326.7208 0003743 288.7655  60.5306 15.69814187  3706,6737.566,91.731,361.952,356.909,0.0
49163.0,STARLINK-3088,PAYLOAD,2021-11-10 22:00:00,15.69749004,0.0003673,69.9993,324.3782,289.4226,87.6681,5.8357000000000016e-06,4.84e-06,0.0,0 STARLINK-3088,1 49163U 21082AK  21314.91667824  .00000484  00000-0  58357-5 0  9999,2 49163  69.9993 324.3782 0003673 289.4226  87.6681 15.69749004 10340,6737.752,91.734,362.092,357.142,0.0
49163.0,STARLINK-3088,PAYLOAD,2021-11-11 14:00:01,15.69753331,0.0003966,69.9991,322.5043,292.9712,250.3496,-0.00018969,-0.00022802,0.0,0 STARLINK-3088,1 49163U 21082AK  21315.58334491 -.00022802  00000-0 -18969-3 0  9997,2 49163  69.9991 322.5043 0003966 292.9712 250.3496 15.69753331  3682,6737.74,91.734,362.277,356.93300000000005,0.0
49163.0,STARLINK-3088,PAYLOAD,2021-11-11 22:00:00,15.69706764,0.0003867,69.9991,321.5674,287.3836,339.0619999999999,0.00072066,0.00086565,0.0,0 STARLINK-3088,1 49163U 21082AK  21315.91667824  .00086565  00000-0  72066-3 0  9995,2 49163  69.9991 321.5674 0003867 287.3836 339.0620 15.69706764 10507,6737.873000000001,91.737,362.344,357.13199999999995,0.0
49163.0,STARLINK-3088,PAYLOAD,2021-11-12 14:00:01,15.6978102,0.0004152,69.9986,319.6933,292.1916,140.5146,-0.00092795,-0.00109719,0.0,0 STARLINK-3088,1 49163U 21082AK  21316.58334491 -.00109719  00000-0 -92795-3 0  9990,2 49163  69.9986 319.6933 0004152 292.1916 140.5146 15.69781020 10605,6737.661,91.733,362.323,356.728,0.0
49163.0,STARLINK-3088,PAYLOAD,2021-11-12 22:00:00,15.69683273,0.0004095,69.9988,318.7559,286.0953,229.7334,0.00064161,0.00076886,0.0,0 STARLINK-3088,1 49163U 21082AK  21316.91667824  .00076886  00000-0  64161-3 0  9998,2 49163  69.9988 318.7559 0004095 286.0953 229.7334 15.69683273 10655,6737.94,91.738,362.564,357.046,0.0
49163.0,STARLINK-3088,PAYLOAD,2021-11-13 14:00:01,15.69766559,0.0004231,69.9986,316.8823,290.3346,31.6993,-0.00024516,-0.00029403,0.0,0 STARLINK-3088,1 49163U 21082AK  21317.58334491 -.00029403  00000-0 -24516-3 0  9998,2 49163  69.9986 316.8823 0004231 290.3346  31.6993 15.69766559 10764,6737.7019999999975,91.733,362.418,356.716,0.0
49163.0,STARLINK-3088,PAYLOAD,2021-11-13 22:00:00,15.69726222,0.0004108,69.9986,315.9449,285.3621,119.8112,0.00063474,0.0007618999999999,0.0,0 STARLINK-3088,1 49163U 21082AK  21317.91667824  .00076190  00000-0  63474-3 0  9993,2 49163  69.9986 315.9449 0004108 285.3621 119.8112 15.69726222  3689,6737.816999999999,91.736,362.45,356.914,0.0
49163.0,STARLINK-3088,PAYLOAD,2021-11-14 06:00:00,15.69767135,0.0004198,69.9983,315.0085,288.9765,199.3347,2.323e-06,6.5e-07,0.0,0 STARLINK-3088,1 49163U 21082AK  21318.25001157  .00000065  00000-0  23230-5 0  9998,2 49163  69.9983 315.0085 0004198 288.9765 199.3347 15.69767135 10869,6737.7,91.733,362.394,356.737,0.0
49163.0,STARLINK-3088,PAYLOAD,2021-11-14 14:00:01,15.69822218,0.000407,69.9979,314.0711,290.7133,280.7422,-0.0011593,-0.00136813,0.0,0 STARLINK-3088,1 49163U 21082AK  21318.58334491 -.00136813  00000-0 -11593-2 0  9993,2 49163  69.9979 314.0711 0004070 290.7133 280.7422 15.69822218  3650,6737.543000000002,91.73,362.15,356.665,0.0
49163.0,STARLINK-3088,PAYLOAD,2021-11-14 22:00:00,15.69701955,0.0003871,69.9981,313.134,285.6979,8.9146,0.00059734,0.00071573,0.0,0 STARLINK-3088,1 49163U 21082AK  21318.91667824  .00071573  00000-0  59734-3 0  9998,2 49163  69.9981 313.1340 0003871 285.6979   8.9146 15.69701955 10970,6737.887,91.737,362.36,357.144,0.0
49163.0,STARLINK-3088,PAYLOAD,2021-11-15 14:00:01,15.69780828,0.0003903,69.998,311.2597,290.7642,170.0727,-0.00034466,-0.00041214,0.0,0 STARLINK-3088,1 49163U 21082AK  21319.58334491 -.00041214  00000-0 -34466-3 0  9999,2 49163  69.9980 311.2597 0003903 290.7642 170.0727 15.69780828 11076,6737.661,91.733,362.156,356.896,0.0
49163.0,STARLINK-3088,PAYLOAD,2021-11-15 22:00:00,15.69776475,0.000368,69.9981,310.3229,285.3725,258.6104,-0.00028738,-0.00034419,0.0,0 STARLINK-3088,1 49163U 21082AK  21319.91667824 -.00034419  00000-0 -28738-3 0  9999,2 49163  69.9981 310.3229 0003680 285.3725 258.6104 15.69776475  3697,6737.674,91.733,362.018,357.059,0.0
49163.0,STARLINK-3088,PAYLOAD,2021-11-16 14:00:01,15.69757893,0.0003694,69.9975,308.4485,291.4106,58.8186,-0.00024927,-0.00029876,0.0,0 STARLINK-3088,1 49163U 21082AK  21320.58334491 -.00029876  00000-0 -24927-3 0  9992,2 49163  69.9975 308.4485 0003694 291.4106  58.8186 15.69757893 11230,6737.727,91.734,362.081,357.103,0.0
49163.0,STARLINK-3088,PAYLOAD,2021-11-16 22:00:00,15.69731561,0.0003582,69.9977,307.5113,285.5956,147.7562,0.00055544,0.00066576,0.0,0 STARLINK-3088,1 49163U 21082AK  21320.91667824  .00066576  00000-0  55544-3 0  9993,2 49163  69.9977 307.5113 0003582 285.5956 147.7562 15.69731561  3706,6737.802,91.735,362.081,357.254,0.0
49163.0,STARLINK-3088,PAYLOAD,2021-11-17 06:00:02,15.69782556,0.0003776,69.9979,306.574,289.6029,226.9503,-0.00041389,-0.00049404,0.0,0 STARLINK-3088,1 49163U 21082AK  21321.25002315 -.00049404  00000-0 -41389-3 0  9994,2 49163  69.9979 306.5740 0003776 289.6029 226.9503 15.69782556 11337,6737.656,91.732,362.065,356.977,0.0
49163.0,STARLINK-3088,PAYLOAD,2021-11-17 10:00:00,15.69759164,0.0003871,69.9979,306.1053,291.0029,87.0662,-0.00025126,-0.00030115,0.0,0 STARLINK-3088,1 49163U 21082AK  21321.41667824 -.00030115  00000-0 -25126-3 0  9994,2 49163  69.9979 306.1053 0003871 291.0029  87.0662 15.69759164  3661,6737.723000000001,91.734,362.196,356.98,0.0
49163.0,STARLINK-3088,PAYLOAD,2021-11-17 22:00:01,15.69720206,0.0003761,69.9981,304.7,284.4457,38.3618,0.00049742,0.00059523,0.0,0 STARLINK-3088,1 49163U 21082AK  21321.91668981  .00059523  00000-0  49742-3 0  9996,2 49163  69.9981 304.7000 0003761 284.4457  38.3618 15.69720206 11449,6737.835,91.736,362.234,357.165,0.0
49163.0,STARLINK-3088,PAYLOAD,2021-11-18 14:00:01,15.6979263,0.0003833,69.9975,302.8256,288.863,200.1332,-0.00040504,-0.00048378,0.0,0 STARLINK-3088,1 49163U 21082AK  21322.58334491 -.00048378  00000-0 -40504-3 0  9991,2 49163  69.9975 302.8256 0003833 288.8630 200.1332 15.69792630 11548,6737.627,91.732,362.075,356.91,0.0
49163.0,STARLINK-3088,PAYLOAD,2021-11-18 22:00:00,15.69772245,0.0003626,69.9978,301.8885,283.496,288.6619,-0.00027022,-0.00032378,0.0,0 STARLINK-3088,1 49163U 21082AK  21322.91667824 -.00032378  00000-0 -27022-3 0  9990,2 49163  69.9978 301.8885 0003626 283.4960 288.6619 15.69772245  3691,6737.686,91.733,361.994,357.108,0.0
49163.0,STARLINK-3088,PAYLOAD,2021-11-19 14:00:01,15.69767605,0.0003603,69.998,300.0141,288.9808,89.4044,-0.00041431,-0.00049421,0.0,0 STARLINK-3088,1 49163U 21082AK  21323.58334491 -.00049421  00000-0 -41431-3 0  9992,2 49163  69.9980 300.0141 0003603 288.9808  89.4044 15.69767605 11700,6737.699000000001,91.733,361.992,357.136,0.0
49163.0,STARLINK-3088,PAYLOAD,2021-11-19 22:00:00,15.69687917,0.0003561,70.0,299.0771,288.8538,172.44299999999996,0.00084036,0.0010107,0.0,0 STARLINK-3088,1 49163U 21082AK  21323.91667824  .00101070  00000-0  84036-3 0  9993,2 49163  70.0000 299.0771 0003561 288.8538 172.4430 15.69687917  3681,6737.927,91.738,362.191,357.39300000000014,0.0
